[{"OBJECT_NAME":"ORBCOMM FM110","OBJECT_ID":"2015-081D","EPOCH":"2026-03-09T10:51:08.828064","MEAN_MOTION":14.58735323,"ECCENTRICITY":0.00033965,"INCLINATION":47.0012,"RA_OF_ASC_NODE":112.9678,"ARG_OF_PERICENTER":317.5539,"MEAN_ANOMALY":42.5084,"EPHEMERIS_TYPE":0,"CLASSIFICATION_TYPE":"U","NORAD_CAT_ID":41182,"ELEMENT_SET_NO":999,"REV_AT_EPOCH":54306,"BSTAR":0.00025090546,"MEAN_MOTION_DOT":1.012e-5,"MEAN_MOTION_DDOT":0},{"OBJECT_NAME":"CZ-6A DEB","OBJECT_ID":"2022-151EE","EPOCH":"2026-03-09T00:35:55.858848","MEAN_MOTION":14.41655599,"ECCENTRICITY":0.01067019,"INCLINATION":98.6109,"RA_OF_ASC_NODE":88.5818,"ARG_OF_PERICENTER":352.0489,"MEAN_ANOMALY":7.9004,"EPHEMERIS_TYPE":0,"CLASSIFICATION_TYPE":"U","NORAD_CAT_ID":54406,"ELEMENT_SET_NO":999,"REV_AT_EPOCH":17347,"BSTAR":0.0021154914,"MEAN_MOTION_DOT":7.334e-5,"MEAN_MOTION_DDOT":0}]
